{"type": "FeatureCollection", "features": [{"type": "Feature", "id": "IDEM_MA_PNSG_ZONIFICACION.fid--7a2c1f37_1a0b0213f72_7ec", "geometry": {"type": "Polygon", "coordinates": [[[-3.95504148, 40.83770885], [-3.95513678, 40.8377891], [-3.95526202, 40.83776899], [-3.95539251, 40.83767734], [-3.95557893, 40.83754709], [-3.9558112, 40.83754994], [-3.95599395, 40.83760086], [-3.95611305, 40.83759034], [-3.95624381, 40.83751775], [-3.95639726, 40.83740147], [-3.95650458, 40.83732015], [-3.95648432, 40.83722021], [-3.95642523, 40.83703956], [-3.95636684, 40.83690657], [-3.9562583, 40.83677877], [-3.95610604, 40.83666562], [-3.95611716, 40.83656543], [-3.95606661, 40.83654201], [-3.95596647, 40.83656191], [-3.95583551, 40.8366202], [-3.95574642, 40.83653513], [-3.95580064, 40.83637738], [-3.95590664, 40.83632883], [-3.95582996, 40.83623413], [-3.95584135, 40.836153], [-3.95587156, 40.83607171], [-3.9560395, 40.83596545], [-3.9561266, 40.83591229], [-3.95606916, 40.83584603], [-3.95596752, 40.83576107], [-3.95589221, 40.83576169], [-3.95568656, 40.8358635], [-3.95555014, 40.83597904], [-3.95539421, 40.83604706], [-3.95531297, 40.83607157], [-3.95513098, 40.83607308], [-3.954891, 40.83597019], [-3.95485192, 40.83596262], [-3.95485942, 40.83595616], [-3.95459482, 40.83588684], [-3.95438132, 40.83587908], [-3.95421426, 40.83560875], [-3.95412565, 40.83555704], [-3.95401139, 40.83546742], [-3.95388363, 40.83531117], [-3.95380102, 40.83524035], [-3.95369338, 40.8351745], [-3.95356712, 40.83512311], [-3.9534161, 40.83509576], [-3.95326563, 40.83510654], [-3.95326474, 40.83504457], [-3.95315178, 40.83504551], [-3.95314019, 40.83511234], [-3.95311517, 40.83511255], [-3.95312998, 40.83515296], [-3.95312466, 40.83521974], [-3.9530499, 40.8352585], [-3.9530321, 40.83533015], [-3.95298919, 40.835402], [-3.95299015, 40.83546873], [-3.95297242, 40.83554515], [-3.95293531, 40.83558359], [-3.95291166, 40.83560046], [-3.95295977, 40.83566202], [-3.95303685, 40.83578532], [-3.9530258, 40.83589028], [-3.95293999, 40.836034], [-3.95295358, 40.83603444], [-3.95293399, 40.83605311], [-3.95289252, 40.83622506], [-3.95284286, 40.83626361], [-3.95280623, 40.83633541], [-3.9527016, 40.83647928], [-3.95267158, 40.83657487], [-3.95273529, 40.83664108], [-3.95281804, 40.83672143], [-3.95301354, 40.83678655], [-3.95314035, 40.83687607], [-3.95327113, 40.83701199], [-3.95339245, 40.83701098], [-3.95356618, 40.83705197], [-3.95377396, 40.83713085], [-3.95389257, 40.83722319], [-3.95391643, 40.83732904], [-3.95381682, 40.83739349], [-3.95381496, 40.83741882], [-3.95389555, 40.83745616], [-3.95401588, 40.83753143], [-3.95416759, 40.83760644], [-3.9543002, 40.83766255], [-3.95436227, 40.83767249], [-3.95452667, 40.83769881], [-3.95471371, 40.83761146], [-3.95492674, 40.83758586], [-3.95504148, 40.83770885]]]}, "geometry_name": "GEOMETRY1", "properties": {"CDID": "16", "CD_ZONIF": "ZR", "DS_ZONIF": "Zona de Reserva", "DS_NOMBRE": "Charcas de la Hoya de Peñalara", "CD_CCAA": 13, "DS_CCAA": "CM", "DS_PROV": "MADRID", "DS_PARQUE": "Parque Nacional de la Sierra de Guadarrama", "DS_SOLAPES": null, "NM_SUPHA": 5.43772008, "SHAPE_LENG": 1163.88906876, "SHAPE_AREA": 54377.200783}}, {"type": "Feature", "id": "IDEM_MA_PNSG_ZONIFICACION.fid--7a2c1f37_1a0b0213f72_7f0", "geometry": {"type": "Polygon", "coordinates": [[[-3.93469461, 40.86623225], [-3.93476454, 40.86629366], [-3.93485258, 40.86630248], [-3.93503418, 40.86626764], [-3.93514085, 40.866262], [-3.93520316, 40.86622813], [-3.93529052, 40.86618929], [-3.9354265, 40.86603565], [-3.93546915, 40.86600808], [-3.93557584, 40.8659391], [-3.93592656, 40.86587428], [-3.93643484, 40.86585109], [-3.93683558, 40.86577157], [-3.93715417, 40.86565458], [-3.93731707, 40.86562942], [-3.93741712, 40.8656], [-3.93752345, 40.86557054], [-3.93754675, 40.86544164], [-3.93755749, 40.86531285], [-3.93758643, 40.86515654], [-3.93758666, 40.86515531], [-3.93755151, 40.86488865], [-3.93754942, 40.8647409], [-3.93746058, 40.86467488], [-3.93732219, 40.86465694], [-3.93729601, 40.86458089], [-3.93728197, 40.86447613], [-3.93736258, 40.86440397], [-3.93736724, 40.86428953], [-3.93736357, 40.86427659], [-3.937417, 40.86425576], [-3.93742895, 40.86421276], [-3.93737178, 40.86416555], [-3.93742734, 40.86409837], [-3.93738886, 40.86404148], [-3.93740115, 40.86402231], [-3.93757667, 40.86400182], [-3.93766416, 40.8639725], [-3.93767573, 40.86394706], [-3.93770777, 40.86394832], [-3.9377763, 40.86390962], [-3.9378893, 40.86390871], [-3.93792002, 40.86386079], [-3.93801426, 40.86386479], [-3.93809568, 40.86384983], [-3.93817649, 40.86379197], [-3.93830171, 40.86376711], [-3.93838306, 40.86374738], [-3.93848939, 40.86371792], [-3.93857067, 40.86369342], [-3.9385893, 40.86367897], [-3.93871385, 40.86360645], [-3.93876354, 40.86356791], [-3.93881977, 40.86354839], [-3.93890706, 40.86350478], [-3.93902615, 40.86348951], [-3.93912619, 40.86346009], [-3.93916312, 40.86340736], [-3.93916218, 40.86334063], [-3.93911054, 40.86324095], [-3.93910339, 40.86317903], [-3.9391715, 40.86311174], [-3.9392141, 40.86301606], [-3.93930632, 40.86287707], [-3.93933063, 40.86281967], [-3.93943715, 40.8628045], [-3.93949487, 40.86279877], [-3.9395939, 40.86278893], [-3.93971319, 40.86278795], [-3.93980456, 40.86276109], [-3.93981323, 40.86275854], [-3.9398378, 40.8627202], [-3.93981803, 40.86265363], [-3.93978563, 40.86258239], [-3.93973439, 40.8625113], [-3.93971434, 40.86242566], [-3.93968214, 40.86236873], [-3.93964347, 40.86229754], [-3.93958622, 40.86224557], [-3.93945371, 40.86219898], [-3.93929635, 40.86217166], [-3.939177, 40.86216787], [-3.93914909, 40.86220178], [-3.93907824, 40.86228784], [-3.9390858, 40.86237835], [-3.9390862, 40.86240695], [-3.93907398, 40.86243088], [-3.93903104, 40.86250273], [-3.93895004, 40.86254629], [-3.93890048, 40.86259436], [-3.9388643, 40.86269953], [-3.93879031, 40.86279547], [-3.93879179, 40.86290033], [-3.93869228, 40.86296787], [-3.93859291, 40.86304495], [-3.93844905, 40.86308426], [-3.93836784, 40.86311352], [-3.93825476, 40.86310967], [-3.93816099, 40.86313903], [-3.93804879, 40.86319715], [-3.9379613, 40.86322646], [-3.93788002, 40.86325096], [-3.93776027, 40.86321856], [-3.93770491, 40.86330005], [-3.93766852, 40.86339092], [-3.93758771, 40.86344877], [-3.93751372, 40.86354471], [-3.9373571, 40.86356982], [-3.93733787, 40.86360173], [-3.9373197, 40.86358919], [-3.93720149, 40.86366642], [-3.93705669, 40.863639], [-3.93691863, 40.86364488], [-3.93687583, 40.86372627], [-3.93690863, 40.86382611], [-3.93695106, 40.86387757], [-3.93684706, 40.86391241], [-3.93671035, 40.86401362], [-3.9365731, 40.86407671], [-3.936448, 40.86411109], [-3.93631616, 40.86411216], [-3.93620376, 40.86415597], [-3.93610418, 40.86421875], [-3.93590509, 40.86434907], [-3.93579322, 40.86443102], [-3.9357064, 40.86450799], [-3.93561917, 40.86455637], [-3.93550056, 40.864605], [-3.93538909, 40.86471554], [-3.93531442, 40.86476381], [-3.9352835, 40.86479743], [-3.93521538, 40.86486472], [-3.93509008, 40.8648848], [-3.93495283, 40.86494788], [-3.93482733, 40.86495367], [-3.93477156, 40.86500655], [-3.93456391, 40.86497487], [-3.93437422, 40.86488107], [-3.93421612, 40.86480131], [-3.93414726, 40.86481617], [-3.93411728, 40.86491652], [-3.93420825, 40.86513506], [-3.93424078, 40.86521583], [-3.9341398, 40.86517851], [-3.9340197, 40.86512228], [-3.93393822, 40.86513248], [-3.93382541, 40.86514769], [-3.93374466, 40.86521031], [-3.93364014, 40.86536846], [-3.93360548, 40.86558325], [-3.93363862, 40.86570692], [-3.93393305, 40.86610495], [-3.93400311, 40.86617589], [-3.93412942, 40.8662273], [-3.93419895, 40.8662601], [-3.93431817, 40.86625437], [-3.93443693, 40.86621527], [-3.93459375, 40.86620447], [-3.93469461, 40.86623225]]]}, "geometry_name": "GEOMETRY1", "properties": {"CDID": "11", "CD_ZONIF": "ZR", "DS_ZONIF": "Zona de Reserva", "DS_NOMBRE": "Humedal del Operante", "CD_CCAA": 13, "DS_CCAA": "CM", "DS_PROV": "MADRID", "DS_PARQUE": "Parque Nacional de la Sierra de Guadarrama", "DS_SOLAPES": null, "NM_SUPHA": 6.79477648, "SHAPE_LENG": 1723.87564742, "SHAPE_AREA": 67947.764848}}, {"type": "Feature", "id": "IDEM_MA_PNSG_ZONIFICACION.fid--7a2c1f37_1a0b0213f72_7fa", "geometry": {"type": "Polygon", "coordinates": [[[-3.94321929, 40.84620746], [-3.94333949, 40.84627322], [-3.94347812, 40.84631022], [-3.94355249, 40.84624287], [-3.94355709, 40.84622634], [-3.94361465, 40.84619946], [-3.9436955, 40.84614637], [-3.9438211, 40.84615011], [-3.94392098, 40.84611115], [-3.94393879, 40.84603951], [-3.94396889, 40.84594869], [-3.94399305, 40.84588176], [-3.94415543, 40.84582322], [-3.94425059, 40.84589395], [-3.94441466, 40.84595457], [-3.94450942, 40.8459967], [-3.94469751, 40.84598086], [-3.94479752, 40.84595144], [-3.94490423, 40.84595056], [-3.94495437, 40.84594539], [-3.94493405, 40.84584068], [-3.94481046, 40.84553662], [-3.94480864, 40.84540793], [-3.94493152, 40.84522101], [-3.94497275, 40.84503], [-3.94488305, 40.84490203], [-3.94460911, 40.84461826], [-3.94431782, 40.84443951], [-3.9442736, 40.84441956], [-3.94427335, 40.84440174], [-3.94401878, 40.84415595], [-3.94366939, 40.84386326], [-3.94361836, 40.84380648], [-3.94360353, 40.8437832], [-3.94360319, 40.84375937], [-3.94360825, 40.84367353], [-3.94360021, 40.84354966], [-3.94366122, 40.84342522], [-3.94367104, 40.84339396], [-3.94371723, 40.84339139], [-3.94376791, 40.84342435], [-3.94379977, 40.84345745], [-3.9439122, 40.8434184], [-3.94399332, 40.84338437], [-3.94404366, 40.84339349], [-3.9441123, 40.84336433], [-3.94415582, 40.84333537], [-3.94419793, 40.84320632], [-3.94426643, 40.84316762], [-3.9443599, 40.84311919], [-3.94445896, 40.84302304], [-3.94450141, 40.84291782], [-3.94451868, 40.84280804], [-3.94446725, 40.84272266], [-3.94437209, 40.84265194], [-3.94425763, 40.842548], [-3.9442058, 40.84243402], [-3.94413548, 40.84234403], [-3.94407784, 40.84226346], [-3.94402061, 40.8422115], [-3.94394449, 40.84215492], [-3.9438359, 40.84202234], [-3.94377806, 40.84192747], [-3.94370761, 40.84182794], [-3.94366853, 40.84172816], [-3.94353606, 40.84168157], [-3.9434349, 40.84162997], [-3.94331605, 40.84165954], [-3.94318439, 40.84167015], [-3.94304356, 40.84169704], [-3.94297262, 40.8416476], [-3.9429714, 40.84156181], [-3.94299549, 40.84149011], [-3.94286329, 40.84146259], [-3.94273783, 40.84146838], [-3.94260604, 40.84146946], [-3.94244927, 40.84148028], [-3.94229297, 40.84152445], [-3.94220606, 40.8415919], [-3.94199314, 40.84162701], [-3.94188712, 40.84167554], [-3.94176275, 40.84175759], [-3.9417259, 40.8418151], [-3.94167771, 40.84195849], [-3.94149139, 40.84209825], [-3.94147418, 40.8422128], [-3.94141337, 40.84235153], [-3.94135904, 40.84250452], [-3.94135425, 40.84260943], [-3.94135607, 40.84273812], [-3.94136458, 40.84289535], [-3.94138469, 40.84298576], [-3.94141769, 40.84309989], [-3.94146398, 40.84326636], [-3.9415345, 40.84337065], [-3.94159241, 40.84347028], [-3.94159396, 40.84357991], [-3.94159504, 40.84365617], [-3.9416466, 40.84375109], [-3.94164909, 40.84375077], [-3.94164187, 40.84386076], [-3.94173824, 40.84401728], [-3.94178967, 40.84410266], [-3.94190993, 40.84417319], [-3.941943, 40.84429209], [-3.94199416, 40.8443584], [-3.94212717, 40.84444312], [-3.94222213, 40.84449955], [-3.94221093, 40.84459498], [-3.94213021, 40.8446576], [-3.94212549, 40.84476728], [-3.9421458, 40.84487199], [-3.94217806, 40.84493369], [-3.94221079, 40.84502876], [-3.94228706, 40.84509487], [-3.94237007, 40.8451943], [-3.94242723, 40.8452415], [-3.94254095, 40.84529301], [-3.94257382, 40.84539761], [-3.942638, 40.84549719], [-3.94264309, 40.84549703], [-3.94267694, 40.84558744], [-3.94275989, 40.8456821], [-3.942818, 40.84579603], [-3.94288225, 40.84590038], [-3.9429085, 40.8459812], [-3.94300407, 40.84608052], [-3.94309882, 40.84612265], [-3.94321929, 40.84620746]]]}, "geometry_name": "GEOMETRY1", "properties": {"CDID": "10", "CD_ZONIF": "ZR", "DS_ZONIF": "Zona de Reserva", "DS_NOMBRE": "Hoya de Pepe Hernando", "CD_CCAA": 13, "DS_CCAA": "CM", "DS_PROV": "MADRID", "DS_PARQUE": "Parque Nacional de la Sierra de Guadarrama", "DS_SOLAPES": null, "NM_SUPHA": 10.05214651, "SHAPE_LENG": 1534.74932617, "SHAPE_AREA": 100521.465075}}, {"type": "Feature", "id": "IDEM_MA_PNSG_ZONIFICACION.fid--7a2c1f37_1a0b0213f72_7fb", "geometry": {"type": "Polygon", "coordinates": [[[-3.95886722, 40.84070548], [-3.95898694, 40.84073785], [-3.95903749, 40.84076126], [-3.95915708, 40.8407841], [-3.9592517, 40.84081668], [-3.95935274, 40.84085874], [-3.95941646, 40.84092495], [-3.95944887, 40.84099618], [-3.95949356, 40.84104825], [-3.95959432, 40.84107124], [-3.95968983, 40.84116579], [-3.95979879, 40.84132219], [-3.95989376, 40.8413786], [-3.95991983, 40.84144512], [-3.96000258, 40.84152546], [-3.9600543, 40.8416299], [-3.9601243, 40.84169606], [-3.96013816, 40.84178651], [-3.9601583, 40.84187691], [-3.96029228, 40.8419605], [-3.9603086, 40.84192192], [-3.96050295, 40.841906], [-3.96070227, 40.84179947], [-3.9609256, 40.84161647], [-3.96116664, 40.84135705], [-3.96125265, 40.84122763], [-3.96125038, 40.84107034], [-3.96106127, 40.84101472], [-3.96091561, 40.84092536], [-3.96085244, 40.84089729], [-3.96065065, 40.84083223], [-3.96039195, 40.84073905], [-3.96010216, 40.84066519], [-3.96001098, 40.84065765], [-3.96002037, 40.84065157], [-3.95976809, 40.84056787], [-3.9595163, 40.84051753], [-3.95930216, 40.84046687], [-3.95904367, 40.84038798], [-3.95890478, 40.84033194], [-3.95873471, 40.84029045], [-3.95862106, 40.84024373], [-3.95835589, 40.84013629], [-3.95814796, 40.84008082], [-3.95807093, 40.83996228], [-3.95800728, 40.83990084], [-3.95794281, 40.83978221], [-3.95785241, 40.83960659], [-3.95765062, 40.83954152], [-3.95756821, 40.83948501], [-3.95732808, 40.8393726], [-3.9570434, 40.83921765], [-3.9569432, 40.83923278], [-3.95691929, 40.83919744], [-3.95691789, 40.83921869], [-3.95683562, 40.83917171], [-3.95671065, 40.83921088], [-3.956641, 40.83916855], [-3.95650293, 40.8391697], [-3.95643465, 40.8392227], [-3.95636842, 40.83941869], [-3.95629156, 40.83974824], [-3.95628487, 40.83974477], [-3.95628542, 40.83975783], [-3.95624921, 40.83985823], [-3.95636941, 40.83992397], [-3.95646547, 40.84005664], [-3.95652442, 40.84022776], [-3.9564809, 40.84025672], [-3.95640661, 40.84032884], [-3.95644502, 40.84038096], [-3.95657709, 40.84039893], [-3.95662798, 40.84044618], [-3.95664873, 40.84057948], [-3.95664369, 40.84066532], [-3.9567725, 40.84089306], [-3.95685573, 40.84100678], [-3.95699401, 40.84101993], [-3.95705758, 40.84103224], [-3.95707026, 40.84101594], [-3.95710765, 40.84099657], [-3.95716413, 40.8409961], [-3.95720165, 40.84098625], [-3.9572262, 40.84094791], [-3.95724441, 40.84090486], [-3.9573569, 40.84087056], [-3.9575065, 40.84079781], [-3.95761946, 40.84079688], [-3.95766353, 40.84080604], [-3.95775077, 40.84081477], [-3.95778278, 40.84080505], [-3.95786423, 40.84079484], [-3.95793837, 40.8408315], [-3.95805899, 40.84080753], [-3.9581972, 40.84081591], [-3.95835417, 40.84081938], [-3.95853542, 40.84076544], [-3.9587228, 40.84070191], [-3.95886722, 40.84070548]]]}, "geometry_name": "GEOMETRY1", "properties": {"CDID": "12", "CD_ZONIF": "ZR", "DS_ZONIF": "Zona de Reserva", "DS_NOMBRE": "Laguna grande de Peñalara y canales", "CD_CCAA": 13, "DS_CCAA": "CM", "DS_PROV": "MADRID", "DS_PARQUE": "Parque Nacional de la Sierra de Guadarrama", "DS_SOLAPES": null, "NM_SUPHA": 4.25113739, "SHAPE_LENG": 1238.2172235, "SHAPE_AREA": 42511.3738993}}, {"type": "Feature", "id": "IDEM_MA_PNSG_ZONIFICACION.fid--7a2c1f37_1a0b0213f72_7fc", "geometry": {"type": "Polygon", "coordinates": [[[-3.95128336, 40.83514536], [-3.95142258, 40.83522525], [-3.95154277, 40.83529099], [-3.95159003, 40.83552418], [-3.95167884, 40.83559018], [-3.95170156, 40.8358617], [-3.95172127, 40.83592351], [-3.95183118, 40.83593847], [-3.95195242, 40.83588008], [-3.95227035, 40.83572968], [-3.95229218, 40.83550069], [-3.95237206, 40.83538086], [-3.95245289, 40.83532776], [-3.95246614, 40.83532765], [-3.9524669, 40.83530621], [-3.95254118, 40.8352341], [-3.95257092, 40.83511945], [-3.9526761, 40.83501371], [-3.95273735, 40.83490833], [-3.95287391, 40.83480233], [-3.95307984, 40.83471959], [-3.95326674, 40.83462271], [-3.95340901, 40.83457661], [-3.95361342, 40.83441247], [-3.95359527, 40.83402174], [-3.95348081, 40.83391781], [-3.95339719, 40.8337755], [-3.95337597, 40.83360883], [-3.95336569, 40.83357013], [-3.95294218, 40.83352524], [-3.95254465, 40.83381453], [-3.95202728, 40.83406191], [-3.95152109, 40.83421386], [-3.95134005, 40.83428209], [-3.95102294, 40.83448968], [-3.95102912, 40.83449512], [-3.95093577, 40.83453807], [-3.95089947, 40.8346337], [-3.95084449, 40.83473903], [-3.95080916, 40.83490139], [-3.95085452, 40.83500112], [-3.9509687, 40.83508598], [-3.95105144, 40.83516634], [-3.95116392, 40.83513204], [-3.95128336, 40.83514536]]]}, "geometry_name": "GEOMETRY1", "properties": {"CDID": "13", "CD_ZONIF": "ZR", "DS_ZONIF": "Zona de Reserva", "DS_NOMBRE": "Laguna Chica", "CD_CCAA": 13, "DS_CCAA": "CM", "DS_PROV": "MADRID", "DS_PARQUE": "Parque Nacional de la Sierra de Guadarrama", "DS_SOLAPES": null, "NM_SUPHA": 3.09613393, "SHAPE_LENG": 790.87491002, "SHAPE_AREA": 30961.3392591}}, {"type": "Feature", "id": "IDEM_MA_PNSG_ZONIFICACION.fid--7a2c1f37_1a0b0213f72_7fd", "geometry": {"type": "Polygon", "coordinates": [[[-3.94774464, 40.84899681], [-3.94773161, 40.84906041], [-3.947887, 40.84920729], [-3.94790319, 40.84936589], [-3.94787834, 40.84957774], [-3.9479789, 40.84978856], [-3.94798192, 40.85000019], [-3.94780408, 40.85023446], [-3.94772349, 40.85044677], [-3.94778511, 40.85085898], [-3.94770099, 40.8518015], [-3.94762145, 40.85208788], [-3.94749965, 40.85234286], [-3.94743434, 40.85265029], [-3.94743796, 40.85290424], [-3.94749732, 40.85315773], [-3.94787599, 40.85332393], [-3.94843355, 40.85332993], [-3.94878043, 40.85322126], [-3.94919411, 40.85291096], [-3.94954204, 40.85287635], [-3.94994419, 40.85273547], [-3.95006523, 40.85242758], [-3.9502838, 40.85211889], [-3.95041877, 40.85181089], [-3.95041378, 40.85146171], [-3.95042333, 40.85115474], [-3.95042031, 40.85094312], [-3.95047272, 40.85070988], [-3.95045591, 40.85050895], [-3.95025825, 40.85033068], [-3.95011815, 40.85027892], [-3.95003182, 40.85008915], [-3.94990445, 40.84995262], [-3.94984629, 40.84978378], [-3.94977435, 40.84962564], [-3.94977163, 40.84943518], [-3.94974059, 40.84921321], [-3.94946843, 40.84869691], [-3.9492402, 40.8483284], [-3.94923793, 40.84816968], [-3.94932958, 40.84775622], [-3.94947984, 40.84754333], [-3.94956208, 40.84744741], [-3.9495739, 40.84729916], [-3.94954772, 40.84724161], [-3.94955942, 40.84723582], [-3.94958992, 40.8471736], [-3.94959948, 40.84696378], [-3.94956666, 40.84686395], [-3.94948473, 40.84684079], [-3.94934617, 40.84680856], [-3.94920065, 40.84672872], [-3.94917439, 40.8466479], [-3.94912787, 40.84646714], [-3.94912535, 40.84629079], [-3.94914842, 40.8461476], [-3.94921542, 40.84600404], [-3.94926912, 40.84580816], [-3.94948634, 40.84563476], [-3.94951985, 40.84534371], [-3.94939181, 40.84516839], [-3.94919561, 40.8450556], [-3.94904941, 40.8449281], [-3.9489857, 40.84486189], [-3.94883486, 40.84484883], [-3.94875934, 40.84484945], [-3.94875871, 40.84485692], [-3.94856031, 40.84503016], [-3.94853568, 40.84506373], [-3.94839937, 40.84518879], [-3.94825617, 40.845271], [-3.9481206, 40.84544849], [-3.94802815, 40.84556842], [-3.94801716, 40.84567815], [-3.94793699, 40.84577891], [-3.9478249, 40.8458418], [-3.94762473, 40.84589111], [-3.94756564, 40.84590372], [-3.94756475, 40.84590357], [-3.94754846, 40.84590694], [-3.9474545, 40.84592202], [-3.94741274, 40.84595442], [-3.94741755, 40.84597916], [-3.94741365, 40.84599008], [-3.94742014, 40.84601779], [-3.94742628, 40.84602577], [-3.947431, 40.84605717], [-3.94742229, 40.8460982], [-3.94742338, 40.84617446], [-3.94742139, 40.84625551], [-3.94741286, 40.84631755], [-3.94740406, 40.84636053], [-3.94739532, 40.84640827], [-3.94735851, 40.84646815], [-3.94728104, 40.84653791], [-3.94724412, 40.84659065], [-3.94713322, 40.84673695], [-3.94708375, 40.84678979], [-3.94704994, 40.84684012], [-3.94696609, 40.84690277], [-3.94689742, 40.84692956], [-3.94683813, 40.84695388], [-3.94676946, 40.84698066], [-3.94669482, 40.84702894], [-3.94665467, 40.84707455], [-3.94665456, 40.84707413], [-3.94663935, 40.8471009], [-3.94654976, 40.84720174], [-3.94654525, 40.84732571], [-3.94655896, 40.84740664], [-3.94658842, 40.8474922], [-3.9466051, 40.84756118], [-3.94661222, 40.84762071], [-3.94662232, 40.84766829], [-3.9466482, 40.8477229], [-3.94665523, 40.84777528], [-3.94667804, 40.84783467], [-3.94667168, 40.84783466], [-3.94672252, 40.84787244], [-3.94677706, 40.84795542], [-3.94683426, 40.848005], [-3.94688816, 40.84804269], [-3.94695768, 40.84807549], [-3.94701785, 40.84811313], [-3.94706904, 40.84818183], [-3.9471142, 40.84826726], [-3.9471873, 40.84833101], [-3.94724508, 40.84842111], [-3.94727397, 40.84846616], [-3.94731886, 40.84853252], [-3.94736051, 40.84859177], [-3.94739257, 40.84863917], [-3.94741812, 40.84866995], [-3.94745001, 40.84870544], [-3.94748849, 40.84876232], [-3.94749831, 40.84876507], [-3.94751295, 40.84877101], [-3.94753173, 40.84877854], [-3.94754431, 40.84878319], [-3.94754152, 40.84878381], [-3.94758325, 40.84880445], [-3.9476525, 40.84881818], [-3.94769357, 40.84883691], [-3.94770165, 40.84884513], [-3.94773217, 40.8488349], [-3.94774464, 40.84899681]]]}, "geometry_name": "GEOMETRY1", "properties": {"CDID": "14", "CD_ZONIF": "ZR", "DS_ZONIF": "Zona de Reserva", "DS_NOMBRE": "Charcas de los Llanos de Peñalara", "CD_CCAA": 13, "DS_CCAA": "CM", "DS_PROV": "MADRID", "DS_PARQUE": "Parque Nacional de la Sierra de Guadarrama", "DS_SOLAPES": null, "NM_SUPHA": 17.02158524, "SHAPE_LENG": 2276.41317682, "SHAPE_AREA": 170215.852409}}, {"type": "Feature", "id": "IDEM_MA_PNSG_ZONIFICACION.fid--7a2c1f37_1a0b0213f72_7fe", "geometry": {"type": "Polygon", "coordinates": [[[-3.96271548, 40.83669646], [-3.96279754, 40.83672914], [-3.96284126, 40.83671447], [-3.9629605, 40.83671348], [-3.9630036, 40.83665592], [-3.96300277, 40.83659872], [-3.96291443, 40.83656609], [-3.96280692, 40.83650979], [-3.96265555, 40.83645861], [-3.96257893, 40.83636868], [-3.9625901, 40.83627325], [-3.96268238, 40.83614378], [-3.96276334, 40.8361002], [-3.96281885, 40.836033], [-3.96284919, 40.83596124], [-3.96272927, 40.83591458], [-3.96251521, 40.8358687], [-3.96241418, 40.83582664], [-3.96239377, 40.83571717], [-3.96239888, 40.83563609], [-3.96248597, 40.83558293], [-3.9625357, 40.83554914], [-3.96253425, 40.83544905], [-3.96252798, 40.83541815], [-3.9625405, 40.83540589], [-3.96253153, 40.83522006], [-3.96249946, 40.83517266], [-3.9622861, 40.83517444], [-3.9621037, 40.83514736], [-3.96187785, 40.83515401], [-3.96155594, 40.83502799], [-3.96144885, 40.83500028], [-3.96128969, 40.8348443], [-3.96122611, 40.83478763], [-3.96097289, 40.8346372], [-3.96076422, 40.8345293], [-3.96053611, 40.83437866], [-3.96047894, 40.83433147], [-3.96040329, 40.83430826], [-3.96030854, 40.83426615], [-3.96018166, 40.83417187], [-3.95992321, 40.83414435], [-3.95991658, 40.83423237], [-3.95990442, 40.83434803], [-3.95985558, 40.834478], [-3.95978314, 40.83456965], [-3.95970269, 40.83465118], [-3.95965202, 40.83474933], [-3.95955688, 40.83486567], [-3.95946564, 40.83493297], [-3.95937015, 40.8350248], [-3.95929324, 40.83512699], [-3.95925818, 40.83525335], [-3.95932433, 40.83536485], [-3.9593582, 40.83538105], [-3.95935736, 40.83538289], [-3.95978983, 40.83572436], [-3.96007312, 40.83578397], [-3.96036214, 40.8358054], [-3.96055088, 40.83583719], [-3.96060294, 40.83596547], [-3.96072983, 40.83605975], [-3.96085596, 40.8361016], [-3.96105719, 40.83612852], [-3.96124553, 40.83613172], [-3.96138366, 40.83613533], [-3.96140321, 40.836127], [-3.96143341, 40.83614466], [-3.96164236, 40.83627162], [-3.96192, 40.83637418], [-3.96205916, 40.83644929], [-3.96225557, 40.83657636], [-3.96249604, 40.83671259], [-3.96258362, 40.83669279], [-3.96265893, 40.83669216], [-3.96271548, 40.83669646]]]}, "geometry_name": "GEOMETRY1", "properties": {"CDID": "15", "CD_ZONIF": "ZR", "DS_ZONIF": "Zona de Reserva", "DS_NOMBRE": "Glaciar rocoso y turberas de Dos Hermanas", "CD_CCAA": 13, "DS_CCAA": "CM", "DS_PROV": "MADRID", "DS_PARQUE": "Parque Nacional de la Sierra de Guadarrama", "DS_SOLAPES": null, "NM_SUPHA": 4.05924085, "SHAPE_LENG": 1003.81863289, "SHAPE_AREA": 40592.4084628}}, {"type": "Feature", "id": "IDEM_MA_PNSG_ZONIFICACION.fid--7a2c1f37_1a0b0213f72_801", "geometry": {"type": "Polygon", "coordinates": [[[-3.95033034, 40.86010014], [-3.95027778, 40.86008346], [-3.95017438, 40.86004096], [-3.95011106, 40.86000335], [-3.95006582, 40.85991315], [-3.94999022, 40.85989471], [-3.9498955, 40.85985735], [-3.94981321, 40.85981036], [-3.94977527, 40.8597916], [-3.94973092, 40.85976337], [-3.94961758, 40.85974047], [-3.94953495, 40.85966965], [-3.94944024, 40.85963229], [-3.94928848, 40.85955727], [-3.94918101, 40.85950572], [-3.94907388, 40.859478], [-3.9489224, 40.85942204], [-3.94871496, 40.85940468], [-3.94852096, 40.85944918], [-3.94842969, 40.85946482], [-3.94843141, 40.8594888], [-3.94843809, 40.85951734], [-3.94847296, 40.85954089], [-3.94856105, 40.85955447], [-3.94862127, 40.85959449], [-3.9486689, 40.85963223], [-3.94866644, 40.85967992], [-3.94867773, 40.85981092], [-3.94867946, 40.85993246], [-3.94869942, 40.86001095], [-3.9486408, 40.86008294], [-3.94857208, 40.86010734], [-3.94853445, 40.86011003], [-3.94848105, 40.86010808], [-3.94838013, 40.86007555], [-3.94838924, 40.86005402], [-3.94839521, 40.86003252], [-3.94837921, 40.8600112], [-3.94834745, 40.85998524], [-3.94831275, 40.85997361], [-3.94827826, 40.85997628], [-3.94825011, 40.85998366], [-3.94822435, 40.85993859], [-3.94819262, 40.85991501], [-3.94819211, 40.85987927], [-3.94819757, 40.85982202], [-3.94817137, 40.85974596], [-3.94815726, 40.85972805], [-3.94810837, 40.85973521], [-3.94795252, 40.85981276], [-3.94790932, 40.85986555], [-3.94784722, 40.85991373], [-3.94767813, 40.85994372], [-3.94750917, 40.85998324], [-3.94735263, 40.86001313], [-3.94724584, 40.86000924], [-3.94707682, 40.860044], [-3.94701431, 40.86006358], [-3.94693959, 40.86010709], [-3.94683901, 40.86009838], [-3.94675753, 40.86010859], [-3.94671454, 40.86017567], [-3.94665291, 40.86025722], [-3.94659074, 40.86030063], [-3.94647842, 40.86034922], [-3.94641242, 40.86056427], [-3.94635072, 40.86064104], [-3.94631414, 40.86071761], [-3.94629168, 40.86075981], [-3.94632846, 40.86078714], [-3.94633754, 40.86087092], [-3.94635519, 40.86100255], [-3.9463876, 40.86106218], [-3.94646725, 40.86111543], [-3.94650771, 40.86118698], [-3.94652426, 40.86124075], [-3.94646303, 40.86137302], [-3.94637804, 40.8614995], [-3.94633588, 40.86154485], [-3.94634492, 40.86155632], [-3.94642673, 40.86156995], [-3.94647088, 40.86158389], [-3.94653414, 40.86161674], [-3.94654285, 40.86161477], [-3.94659392, 40.86168636], [-3.94672057, 40.86176159], [-3.94684039, 40.86179874], [-3.94701658, 40.86182589], [-3.94721782, 40.86184808], [-3.94732427, 40.86182813], [-3.94741844, 40.86182736], [-3.94755724, 40.86187389], [-3.94766457, 40.86191591], [-3.94772148, 40.86194404], [-3.94776652, 40.86201994], [-3.94785505, 40.8620304], [-3.94786862, 40.862032], [-3.94786875, 40.86203186], [-3.9479471, 40.86204023], [-3.94846819, 40.86146198], [-3.9487378, 40.8611628], [-3.94896547, 40.86091015], [-3.94903663, 40.86083118], [-3.94908275, 40.86078], [-3.94908278, 40.86077998], [-3.95033034, 40.86010014]]]}, "geometry_name": "GEOMETRY1", "properties": {"CDID": "33", "CD_ZONIF": "ZR", "DS_ZONIF": "Zona de Reserva", "DS_NOMBRE": "Laguna de los Pájaros", "CD_CCAA": 13, "DS_CCAA": "CM", "DS_PROV": "MADRID", "DS_PARQUE": "Parque Nacional de la Sierra de Guadarrama", "DS_SOLAPES": null, "NM_SUPHA": 5.09874868, "SHAPE_LENG": 1110.08210994, "SHAPE_AREA": 50987.4867625}}, {"type": "Feature", "id": "IDEM_MA_PNSG_ZONIFICACION.fid--7a2c1f37_1a0b0213f72_810", "geometry": {"type": "Polygon", "coordinates": [[[-3.84352649, 40.97961557], [-3.84355592, 40.97971155], [-3.84329233, 40.98005552], [-3.84318386, 40.98039834], [-3.84325805, 40.98068639], [-3.84326023, 40.98085739], [-3.84291221, 40.98130087], [-3.84290798, 40.98132256], [-3.84309848, 40.98144644], [-3.84329174, 40.98156721], [-3.84331899, 40.98154459], [-3.84345053, 40.98150073], [-3.84357825, 40.98140446], [-3.84366884, 40.98135613], [-3.84374975, 40.9812888], [-3.84385316, 40.98125944], [-3.84407885, 40.98120059], [-3.84424422, 40.98109689], [-3.84431597, 40.98105108], [-3.84451088, 40.98104489], [-3.84469001, 40.98103404], [-3.84495619, 40.98094391], [-3.84524085, 40.98082384], [-3.84538493, 40.9807775], [-3.84546333, 40.98076024], [-3.8456297, 40.98073519], [-3.84576126, 40.98069371], [-3.845937, 40.98066382], [-3.84605891, 40.98060572], [-3.84618684, 40.98052613], [-3.84629889, 40.98043474], [-3.84642343, 40.98033611], [-3.84652206, 40.98017927], [-3.84655055, 40.97994787], [-3.84663448, 40.97987099], [-3.84677801, 40.97978175], [-3.8469147, 40.97964966], [-3.84704821, 40.97951521], [-3.84705969, 40.97942932], [-3.84717116, 40.97929265], [-3.84717641, 40.97929085], [-3.84727762, 40.97925612], [-3.84741974, 40.97930274], [-3.84753322, 40.97932336], [-3.84760183, 40.97929047], [-3.84759817, 40.97927574], [-3.84770811, 40.97905047], [-3.84767526, 40.9786873], [-3.84761584, 40.97845259], [-3.84722043, 40.97841274], [-3.84669932, 40.97847002], [-3.84653174, 40.97859951], [-3.84616234, 40.97838845], [-3.84574996, 40.97812426], [-3.84571339, 40.97812453], [-3.8456, 40.97794573], [-3.84535561, 40.97764721], [-3.84514147, 40.9775022], [-3.84493288, 40.97742151], [-3.84475827, 40.97741564], [-3.84457055, 40.97749209], [-3.84455339, 40.97750725], [-3.84443993, 40.97760745], [-3.84427585, 40.9776873], [-3.84421168, 40.97783435], [-3.84414783, 40.97800643], [-3.84412089, 40.97811388], [-3.84408013, 40.97824645], [-3.84405278, 40.97832173], [-3.84396934, 40.97843675], [-3.84397487, 40.97850106], [-3.8440088, 40.97857231], [-3.84404759, 40.97865425], [-3.84399217, 40.97874761], [-3.84394138, 40.97883379], [-3.84391394, 40.97890192], [-3.84384369, 40.97894176], [-3.84382547, 40.97896183], [-3.84347656, 40.97901738], [-3.84332375, 40.9792002], [-3.84352649, 40.97961557]]]}, "geometry_name": "GEOMETRY1", "properties": {"CDID": "22", "CD_ZONIF": "ZR", "DS_ZONIF": "Zona de Reserva", "DS_NOMBRE": "Circo del Pico del Nevero", "CD_CCAA": 13, "DS_CCAA": "CM", "DS_PROV": "MADRID", "DS_PARQUE": "Parque Nacional de la Sierra de Guadarrama", "DS_SOLAPES": null, "NM_SUPHA": 9.65458223, "SHAPE_LENG": 1436.39210488, "SHAPE_AREA": 96545.822295}}, {"type": "Feature", "id": "IDEM_MA_PNSG_ZONIFICACION.fid--7a2c1f37_1a0b0213f72_815", "geometry": {"type": "Polygon", "coordinates": [[[-3.93693106, 40.89738848], [-3.93698089, 40.89760126], [-3.93718369, 40.89787985], [-3.93727165, 40.89807315], [-3.93724568, 40.89824582], [-3.93756059, 40.89841572], [-3.93716776, 40.89876383], [-3.9368846, 40.8988308], [-3.93686866, 40.89971478], [-3.93750124, 40.90024857], [-3.93767564, 40.9005274], [-3.93790808, 40.90089198], [-3.93808402, 40.90127858], [-3.9382291, 40.90149297], [-3.9384307, 40.90168534], [-3.93874503, 40.90181213], [-3.9390285, 40.90176671], [-3.93945402, 40.90172013], [-3.93987984, 40.9016951], [-3.94024793, 40.90160587], [-3.94061724, 40.90160286], [-3.94124222, 40.90159776], [-3.94172486, 40.90157226], [-3.94214945, 40.90146101], [-3.9424873, 40.90124267], [-3.94256915, 40.90100488], [-3.94264581, 40.90040065], [-3.94283732, 40.89988171], [-3.94311649, 40.89953451], [-3.9437851, 40.89860208], [-3.94409022, 40.89808221], [-3.94481684, 40.89723552], [-3.94523864, 40.89693027], [-3.94571848, 40.89671076], [-3.94602726, 40.89644954], [-3.94610818, 40.89614708], [-3.9461048, 40.89590997], [-3.94635523, 40.89554144], [-3.94637872, 40.89519634], [-3.94634725, 40.89498102], [-3.94566551, 40.89498661], [-3.94445266, 40.89560016], [-3.94374711, 40.89592929], [-3.94281767, 40.89649738], [-3.94214204, 40.89693405], [-3.94168784, 40.89695932], [-3.94140378, 40.89696163], [-3.94089216, 40.89694425], [-3.94049355, 40.89688283], [-3.93998224, 40.896887], [-3.93932584, 40.89667678], [-3.93878734, 40.89676739], [-3.93833527, 40.89694353], [-3.9379666, 40.89698964], [-3.93762451, 40.89690619], [-3.93712601, 40.89671462], [-3.93693106, 40.89738848]]]}, "geometry_name": "GEOMETRY1", "properties": {"CDID": "9", "CD_ZONIF": "ZR", "DS_ZONIF": "Zona de Reserva", "DS_NOMBRE": "Turberas de El Reventón", "CD_CCAA": 13, "DS_CCAA": "CM", "DS_PROV": "MADRID", "DS_PARQUE": "Parque Nacional de la Sierra de Guadarrama", "DS_SOLAPES": null, "NM_SUPHA": 31.27598927, "SHAPE_LENG": 2664.99871939, "SHAPE_AREA": 312759.892653}}, {"type": "Feature", "id": "IDEM_MA_PNSG_ZONIFICACION.fid--7a2c1f37_1a0b0213f72_82a", "geometry": {"type": "Polygon", "coordinates": [[[-3.92323707, 40.92847449], [-3.92331044, 40.92850617], [-3.92347556, 40.92862879], [-3.92364657, 40.92872275], [-3.92381731, 40.92879766], [-3.92403151, 40.92883407], [-3.92420774, 40.92885173], [-3.9242605, 40.92885722], [-3.92727335, 40.92756579], [-3.93180236, 40.92740245], [-3.93180896, 40.92740221], [-3.93181728, 40.92738427], [-3.93187959, 40.92734563], [-3.93203035, 40.92733964], [-3.93225671, 40.92734735], [-3.93228397, 40.92734738], [-3.93228476, 40.92734738], [-3.93276581, 40.927348], [-3.9329542, 40.92733694], [-3.93325065, 40.92729281], [-3.93325159, 40.92729268], [-3.93329288, 40.92728653], [-3.93363116, 40.92720752], [-3.93369709, 40.92720993], [-3.93371683, 40.92719533], [-3.93495318, 40.92698387], [-3.93514996, 40.92663495], [-3.93520006, 40.92611133], [-3.93517778, 40.92608305], [-3.93518876, 40.92607629], [-3.93524798, 40.92579805], [-3.93516965, 40.9256167], [-3.93527708, 40.92517524], [-3.93550085, 40.9249244], [-3.93566432, 40.92487518], [-3.93581462, 40.92478776], [-3.93606432, 40.92458459], [-3.9361238, 40.9243255], [-3.9361454, 40.92406672], [-3.93594095, 40.92389597], [-3.93571057, 40.92367755], [-3.93576924, 40.92336099], [-3.93589145, 40.92307266], [-3.93572353, 40.92280584], [-3.93531706, 40.92263673], [-3.93523191, 40.92248014], [-3.93528694, 40.92229216], [-3.93529377, 40.92188025], [-3.9353496, 40.92136258], [-3.93562454, 40.92115921], [-3.93590764, 40.9206397], [-3.9359127, 40.92010329], [-3.93595658, 40.91963361], [-3.93541753, 40.91901541], [-3.93486761, 40.91852181], [-3.93388068, 40.91837655], [-3.93296869, 40.91817322], [-3.9321604, 40.9181606], [-3.93111625, 40.91753688], [-3.93042135, 40.91739424], [-3.93042001, 40.91729883], [-3.92995686, 40.91706275], [-3.92888782, 40.91665715], [-3.92790652, 40.91635984], [-3.92744644, 40.91634174], [-3.92681911, 40.9166956], [-3.92621991, 40.91700563], [-3.92564519, 40.91701024], [-3.92507046, 40.91701485], [-3.92463941, 40.91701831], [-3.92423741, 40.91704334], [-3.92363637, 40.91722256], [-3.92297694, 40.91733684], [-3.92232025, 40.91764731], [-3.92140551, 40.91800344], [-3.92125469, 40.91805116], [-3.92116396, 40.91800915], [-3.92103257, 40.91791155], [-3.92085414, 40.91787664], [-3.92063271, 40.91770189], [-3.92045478, 40.91770331], [-3.92020252, 40.91777282], [-3.92008726, 40.91785161], [-3.92008193, 40.91796068], [-3.92024753, 40.918058], [-3.92047545, 40.91820673], [-3.92072333, 40.91831378], [-3.92083383, 40.91838558], [-3.92084161, 40.91845301], [-3.92073276, 40.9185006], [-3.92093533, 40.91879491], [-3.92109604, 40.91903244], [-3.92149621, 40.91926286], [-3.92164849, 40.91938624], [-3.92141193, 40.91960099], [-3.92131151, 40.91976273], [-3.92132743, 40.91992355], [-3.92128788, 40.92003288], [-3.92135733, 40.92010501], [-3.92153627, 40.92017626], [-3.9216408, 40.92031041], [-3.92152057, 40.92052423], [-3.92142634, 40.9206392], [-3.92145245, 40.92068139], [-3.92132499, 40.92073346], [-3.92119727, 40.92090061], [-3.92123408, 40.92108721], [-3.92140705, 40.92122081], [-3.92157907, 40.92128693], [-3.92173173, 40.92143626], [-3.92181565, 40.92156538], [-3.92196722, 40.92163685], [-3.92222167, 40.92172308], [-3.92238023, 40.92180487], [-3.92257402, 40.92195907], [-3.92276651, 40.92201983], [-3.92297233, 40.92205453], [-3.92311417, 40.92191841], [-3.92328273, 40.92173535], [-3.92346498, 40.92155219], [-3.92358017, 40.9214682], [-3.92380688, 40.92152868], [-3.92396623, 40.92166758], [-3.92413178, 40.9217597], [-3.92444206, 40.92192334], [-3.92465552, 40.92201508], [-3.92473907, 40.92202454], [-3.92489728, 40.92216158], [-3.92531278, 40.92239735], [-3.92600242, 40.92316427], [-3.92685872, 40.92370915], [-3.92715737, 40.92425851], [-3.92684501, 40.92446334], [-3.92655791, 40.92474153], [-3.92624656, 40.92501991], [-3.92588955, 40.92550097], [-3.92557974, 40.92588969], [-3.92509892, 40.92618782], [-3.92471302, 40.92633805], [-3.92415792, 40.92652642], [-3.92391622, 40.92658353], [-3.92350377, 40.92656844], [-3.92294636, 40.9265913], [-3.92270492, 40.9266668], [-3.92254483, 40.92672912], [-3.92262392, 40.92708468], [-3.922977, 40.92767047], [-3.92298125, 40.92797565], [-3.92303946, 40.92818487], [-3.92316002, 40.9283596], [-3.92323276, 40.92846501], [-3.92323707, 40.92847449]]]}, "geometry_name": "GEOMETRY1", "properties": {"CDID": "4", "CD_ZONIF": "ZR", "DS_ZONIF": "Zona de Reserva", "DS_NOMBRE": "Afloramientos metamórficos del Collado de la Flecha y cabecera del Artiñuelo", "CD_CCAA": 13, "DS_CCAA": "CM", "DS_PROV": "MADRID", "DS_PARQUE": "Parque Nacional de la Sierra de Guadarrama", "DS_SOLAPES": null, "NM_SUPHA": 114.98374164, "SHAPE_LENG": 5378.1286254, "SHAPE_AREA": 1149837.41638}}], "provenance": {"source": "IDEM_MA_PNSG_ZONIFICACION.geojson", "filter": "DS_ZONIF==Zona de Reserva AND DS_PROV==MADRID", "derived": "2026-09-18 — subset of official features, geometry unmodified"}}