{"type":"FeatureCollection","features":[{"type":"Feature","id":"IDEM_MA_PNSG_ZON_VIVAC_ANUA.fid-524d40d4_1a0b021227e_b57","geometry":{"type":"Polygon","coordinates":[[[-3.88394972,40.76397973],[-3.88401094,40.76387752],[-3.88396662,40.76385129],[-3.88378724,40.7639078],[-3.88366304,40.76394661],[-3.88356162,40.76400159],[-3.88342275,40.76407688],[-3.88334154,40.76416734],[-3.88338404,40.76434349],[-3.88346136,40.76440964],[-3.88358429,40.76441251],[-3.88371856,40.76442007],[-3.88385376,40.76435884],[-3.8839035,40.76426747],[-3.88389071,40.76416324],[-3.88392093,40.76407815],[-3.88394972,40.76397973]]]},"geometry_name":"GEOMETRY1","properties":{"CDID":1,"CD_ZONA":1,"DS_ZONA":"Prado Peluca","DS_SECTOR":"Pedriza","NM_SUPHA":0.22104872,"SHAPE_LENG":190.3105941,"SHAPE_AREA":2210.48715243}},{"type":"Feature","id":"IDEM_MA_PNSG_ZON_VIVAC_ANUA.fid-524d40d4_1a0b021227e_b58","geometry":{"type":"Polygon","coordinates":[[[-3.86343639,40.75909315],[-3.86333921,40.75935499],[-3.8636779,40.75943534],[-3.86417519,40.75968746],[-3.86412429,40.75987341],[-3.86453971,40.75984147],[-3.86501021,40.75967129],[-3.86554663,40.75946818],[-3.86630459,40.75935709],[-3.86659548,40.7590504],[-3.86755359,40.75865136],[-3.86767568,40.75847387],[-3.86822249,40.75825176],[-3.86869407,40.75816623],[-3.86919998,40.75789667],[-3.86991275,40.75767806],[-3.86999456,40.75757813],[-3.87016575,40.75745234],[-3.87045495,40.7573558],[-3.87062616,40.75728118],[-3.87086273,40.75719116],[-3.87106228,40.75714816],[-3.87139907,40.75716636],[-3.87164419,40.75712993],[-3.87181645,40.75708713],[-3.87211794,40.7571886],[-3.87219935,40.7571534],[-3.87226211,40.75708376],[-3.87246976,40.75696461],[-3.87260374,40.75699667],[-3.87273726,40.75698292],[-3.87279988,40.75684781],[-3.87286369,40.75671011],[-3.87293236,40.75656195],[-3.87287829,40.7562343],[-3.87285065,40.7560668],[-3.87257173,40.75581736],[-3.87234321,40.755613],[-3.87189777,40.75560704],[-3.87149517,40.75550044],[-3.87125936,40.75518263],[-3.87055186,40.75476847],[-3.87041083,40.75465189],[-3.87039762,40.7546005],[-3.87030927,40.7545554],[-3.86974482,40.75441227],[-3.86858951,40.75426842],[-3.86768889,40.75442774],[-3.86729269,40.75481208],[-3.86671949,40.75508334],[-3.86621977,40.75522056],[-3.86487252,40.7557455],[-3.86414861,40.75599881],[-3.86399916,40.7560762],[-3.86387651,40.75628687],[-3.86348373,40.75693812],[-3.86331759,40.75766394],[-3.86317406,40.75819892],[-3.86332919,40.75856005],[-3.86343639,40.75909315]]]},"geometry_name":"GEOMETRY1","properties":{"CDID":2,"CD_ZONA":3,"DS_ZONA":"Yelmo","DS_SECTOR":"Pedriza","NM_SUPHA":28.67089377,"SHAPE_LENG":2300.85840847,"SHAPE_AREA":286708.937685}},{"type":"Feature","id":"IDEM_MA_PNSG_ZON_VIVAC_ANUA.fid-524d40d4_1a0b021227e_b59","geometry":{"type":"Polygon","coordinates":[[[-3.86946736,40.7737695],[-3.86967284,40.77389904],[-3.87022693,40.7739591],[-3.87030273,40.77400143],[-3.87038752,40.77401152],[-3.8704764,40.7739751],[-3.87049916,40.77391772],[-3.87059307,40.77390629],[-3.87065341,40.77384505],[-3.87076589,40.7738156],[-3.87088858,40.77384686],[-3.87093644,40.77391085],[-3.87101718,40.77397102],[-3.87116286,40.77396277],[-3.87131287,40.77392588],[-3.87140622,40.77387155],[-3.87152378,40.77387066],[-3.87169518,40.77391108],[-3.87193435,40.77394892],[-3.87213185,40.77383744],[-3.87228951,40.77380648],[-3.87245973,40.7738767],[-3.87266683,40.77388943],[-3.87293116,40.77396371],[-3.87320908,40.77387769],[-3.8734634,40.77382395],[-3.8737898,40.77378172],[-3.8740307,40.773545],[-3.87417931,40.77335412],[-3.87433632,40.77331876],[-3.8744297,40.7732674],[-3.87459762,40.77322144],[-3.87473042,40.77318766],[-3.87487357,40.7731396],[-3.87499536,40.77306946],[-3.87505313,40.77299156],[-3.87503648,40.7729172],[-3.87500411,40.77283998],[-3.87503783,40.77272174],[-3.87503204,40.77257878],[-3.87510513,40.77235537],[-3.87528446,40.77219402],[-3.87548329,40.77199293],[-3.87561011,40.77195047],[-3.87578596,40.77183155],[-3.87583094,40.77179317],[-3.87607023,40.77186628],[-3.87635414,40.77185486],[-3.87683729,40.77161175],[-3.87712626,40.77161992],[-3.87753813,40.77146117],[-3.87756633,40.7713572],[-3.87768479,40.77119895],[-3.87791019,40.77117259],[-3.8780189,40.77113718],[-3.878059,40.77107953],[-3.87811523,40.77102578],[-3.87812397,40.77099805],[-3.8782324,40.77094189],[-3.87830886,40.7708756],[-3.87830809,40.77081681],[-3.87837117,40.77077138],[-3.87843831,40.77068786],[-3.87850208,40.7706943],[-3.87861297,40.77065195],[-3.87877111,40.77057121],[-3.8793312,40.77046513],[-3.87943746,40.77020214],[-3.87927632,40.76986968],[-3.87908086,40.76971569],[-3.87891191,40.76948365],[-3.87862558,40.76929519],[-3.87847809,40.76920229],[-3.87827066,40.76919666],[-3.87812549,40.76915002],[-3.87767645,40.76906245],[-3.87742949,40.76890199],[-3.87728611,40.76884381],[-3.87712832,40.76885675],[-3.87698157,40.76875154],[-3.8768992,40.76870532],[-3.87666385,40.76873864],[-3.87658774,40.76880768],[-3.87592205,40.76919611],[-3.87561991,40.76932652],[-3.8751964,40.76954425],[-3.87490304,40.76964658],[-3.87459082,40.76974428],[-3.87431633,40.76985124],[-3.87394749,40.76993507],[-3.87372837,40.76996056],[-3.8735337,40.7699382],[-3.87340576,40.76974372],[-3.87333386,40.76952022],[-3.8732258,40.76942709],[-3.87320378,40.76930794],[-3.87315547,40.76926681],[-3.8729787,40.76931483],[-3.8727727,40.76938902],[-3.87270557,40.76941819],[-3.87251225,40.76921288],[-3.87249987,40.76911186],[-3.872466,40.76883557],[-3.87225146,40.76852997],[-3.87181428,40.76862729],[-3.87132903,40.76867863],[-3.87110728,40.76879531],[-3.87102748,40.76898374],[-3.87105065,40.76901642],[-3.8710287,40.76907711],[-3.87098567,40.76909127],[-3.87093594,40.76915486],[-3.870885,40.76921999],[-3.87079404,40.76922067],[-3.87073506,40.76923322],[-3.8706697,40.76927867],[-3.8705894,40.76927998],[-3.87057691,40.76931396],[-3.87058659,40.76935884],[-3.87052546,40.76938005],[-3.87044314,40.76934609],[-3.870395,40.76931706],[-3.87050647,40.76958078],[-3.87039805,40.76986375],[-3.87032319,40.76989292],[-3.87015498,40.76997642],[-3.87015824,40.7703357],[-3.87006236,40.77030876],[-3.86979067,40.77040418],[-3.86965917,40.7704363],[-3.86955546,40.77050624],[-3.86946176,40.77054939],[-3.86926967,40.77060447],[-3.86914797,40.77064829],[-3.86904448,40.77064549],[-3.86897469,40.77070322],[-3.86892413,40.77074521],[-3.86894278,40.77080601],[-3.86836549,40.77096791],[-3.86829844,40.77103868],[-3.86813681,40.7710027],[-3.86797289,40.77105398],[-3.86781343,40.77108736],[-3.86775809,40.77121696],[-3.86768745,40.77120712],[-3.86761499,40.77123187],[-3.86756299,40.77125647],[-3.86750224,40.77130707],[-3.86744811,40.77134206],[-3.86738695,40.77136154],[-3.8673736,40.77138412],[-3.86728589,40.77138449],[-3.86713104,40.77141069],[-3.86703322,40.77148292],[-3.86698219,40.77153694],[-3.86685095,40.7715701],[-3.86684224,40.77162379],[-3.86689969,40.77170202],[-3.86698493,40.77174785],[-3.8669996,40.77179065],[-3.86693856,40.77179826],[-3.86696808,40.77189814],[-3.86701082,40.77193],[-3.86710966,40.7719364],[-3.86723153,40.77193204],[-3.86740544,40.77189843],[-3.86750784,40.77189563],[-3.86754251,40.77192089],[-3.86761788,40.77206716],[-3.86766444,40.77218482],[-3.86786945,40.77227697],[-3.86809588,40.77237616],[-3.86814276,40.77261003],[-3.86827976,40.77284113],[-3.86838656,40.77308848],[-3.86865681,40.77314849],[-3.86883759,40.77318864],[-3.86936725,40.77330547],[-3.86946736,40.7737695]]]},"geometry_name":"GEOMETRY1","properties":{"CDID":3,"CD_ZONA":4,"DS_ZONA":"El Pajaro Pedriza","DS_SECTOR":"Pedriza","NM_SUPHA":35.32087203,"SHAPE_LENG":3018.76256197,"SHAPE_AREA":353208.720297}},{"type":"Feature","id":"IDEM_MA_PNSG_ZON_VIVAC_ANUA.fid-524d40d4_1a0b021227e_b5a","geometry":{"type":"Polygon","coordinates":[[[-3.88471832,40.78759546],[-3.88426887,40.78753887],[-3.88369364,40.78775698],[-3.88331935,40.78777014],[-3.88300485,40.7879404],[-3.88294403,40.78818049],[-3.88242911,40.78849882],[-3.88210527,40.78856796],[-3.88192363,40.78863511],[-3.88164222,40.78882409],[-3.88144527,40.78885046],[-3.88124228,40.78882679],[-3.88061683,40.78903336],[-3.88029791,40.78911596],[-3.88010875,40.78897327],[-3.87966662,40.78906042],[-3.87906694,40.78915418],[-3.87891087,40.78900402],[-3.87853845,40.78907442],[-3.87834903,40.78900109],[-3.87759345,40.78940772],[-3.87725707,40.7893992],[-3.8769719,40.78955117],[-3.87625935,40.78962505],[-3.87609174,40.78945823],[-3.87567732,40.78938393],[-3.87552014,40.78947482],[-3.8756262,40.78960824],[-3.87574734,40.7898073],[-3.87552036,40.78986671],[-3.8753105,40.78975657],[-3.87500608,40.78974618],[-3.87472396,40.78967904],[-3.87447759,40.78987189],[-3.87419803,40.7899749],[-3.8743921,40.79013198],[-3.87426083,40.79033476],[-3.87445409,40.79057179],[-3.87536331,40.79103206],[-3.87584761,40.79139473],[-3.87700097,40.79140038],[-3.87891868,40.7906254],[-3.88031896,40.7902715],[-3.8812407,40.78977824],[-3.88319219,40.78937242],[-3.88406651,40.78908924],[-3.88443988,40.78902151],[-3.88475183,40.78900893],[-3.88529903,40.78885527],[-3.88566758,40.78843978],[-3.88583207,40.7881394],[-3.88619467,40.78798675],[-3.88590975,40.78757672],[-3.88505081,40.78764208],[-3.88471832,40.78759546]]]},"geometry_name":"GEOMETRY1","properties":{"CDID":4,"CD_ZONA":5,"DS_ZONA":"Las Torres","DS_SECTOR":"Pedriza","NM_SUPHA":14.98398902,"SHAPE_LENG":2452.25819881,"SHAPE_AREA":149839.890187}},{"type":"Feature","id":"IDEM_MA_PNSG_ZON_VIVAC_ANUA.fid-524d40d4_1a0b021227e_b5b","geometry":{"type":"Polygon","coordinates":[[[-3.95822236,40.83850498],[-3.95838493,40.83859191],[-3.95848357,40.8386055],[-3.95856996,40.83859127],[-3.95864949,40.83863087],[-3.95871297,40.83867086],[-3.95879795,40.83877405],[-3.9588728,40.83878243],[-3.95898103,40.83872028],[-3.95906736,40.83870244],[-3.95910699,40.83865437],[-3.95916936,40.83857168],[-3.95918924,40.83851766],[-3.95930165,40.83841673],[-3.9593694,40.83826213],[-3.95938054,40.83812961],[-3.95935547,40.83803614],[-3.95932244,40.83796615],[-3.95932946,40.83787781],[-3.95938223,40.83776148],[-3.95934941,40.83769837],[-3.95937104,40.83763514],[-3.95933476,40.83758679],[-3.95936667,40.83749644],[-3.95943325,40.83742793],[-3.95933516,40.83737542],[-3.9592676,40.8373149],[-3.95922673,40.83720054],[-3.95922121,40.83709035],[-3.95919686,40.83703395],[-3.95916855,40.8369746],[-3.95919819,40.83685369],[-3.95933402,40.83672472],[-3.95937427,40.83662528],[-3.9592789,40.83659184],[-3.95916488,40.83646396],[-3.95890223,40.83649574],[-3.95868681,40.83649317],[-3.95862779,40.83659545],[-3.95856567,40.83672929],[-3.95846173,40.83675988],[-3.9583459,40.83678787],[-3.95830205,40.83687291],[-3.9582443,40.8369443],[-3.95821246,40.83699347],[-3.95814691,40.83715795],[-3.95812853,40.83722687],[-3.95809316,40.8373155],[-3.95804638,40.83740382],[-3.95801642,40.8375473],[-3.95806203,40.83758476],[-3.95805395,40.83768257],[-3.9577985,40.83785765],[-3.95772739,40.83790283],[-3.95773157,40.83801323],[-3.95778337,40.83808433],[-3.95785711,40.83815847],[-3.95791806,40.83822504],[-3.9579897,40.83832764],[-3.95802833,40.83837417],[-3.95809051,40.83840878],[-3.95816079,40.83842982],[-3.95822236,40.83850498]]]},"geometry_name":"GEOMETRY1","properties":{"CDID":5,"CD_ZONA":6,"DS_ZONA":"Zabala","DS_SECTOR":"Cotos-Peñalara","NM_SUPHA":2.38409153,"SHAPE_LENG":681.15524949,"SHAPE_AREA":23840.9152598}}],"totalFeatures":5,"numberMatched":5,"numberReturned":5,"timeStamp":"2026-09-17T20:34:42.105Z","crs":{"type":"name","properties":{"name":"urn:ogc:def:crs:EPSG::4326"}}}